[
    {
        "Altitude(m)": 706389.128777981,
        "Argument of Periapsis(deg)": 0.0022780242373254137,
        "Eccentricity": 0.0,
        "Inclination(deg)": 45.0,
        "Latitude(deg)": 41.02767470967177,
        "Longitude(deg)": 174.80506762088814,
        "Mean Anomaly(deg)": 67.76114332949618,
        "RAAN(deg)": 214.99784961170838,
        "Satellite Name": "Constellation 1 950",
        "Satellite Number": 950,
        "Semi-Major Axis(m)": 7083131.272910544,
        "Time(s)": 38
    },
    {
        "Altitude(m)": 706393.8111473256,
        "Argument of Periapsis(deg)": 0.002337972243570819,
        "Eccentricity": 0.0,
        "Inclination(deg)": 45.0,
        "Latitude(deg)": 41.049213754449866,
        "Longitude(deg)": 174.87608388086696,
        "Mean Anomaly(deg)": 67.82184446974608,
        "RAAN(deg)": 214.99779302254282,
        "Satellite Name": "Constellation 1 950",
        "Satellite Number": 950,
        "Semi-Major Axis(m)": 7083131.272910544,
        "Time(s)": 39
    },
    {
        "Altitude(m)": 706398.4842892152,
        "Argument of Periapsis(deg)": 0.0023979202498162246,
        "Eccentricity": 0.0,
        "Inclination(deg)": 45.0,
        "Latitude(deg)": 41.0707037329978,
        "Longitude(deg)": 174.94714906293427,
        "Mean Anomaly(deg)": 67.88254560999597,
        "RAAN(deg)": 214.9977364333772,
        "Satellite Name": "Constellation 1 950",
        "Satellite Number": 950,
        "Semi-Major Axis(m)": 7083131.272910544,
        "Time(s)": 40
    },
    {
        "Altitude(m)": 706403.148175586,
        "Argument of Periapsis(deg)": 0.00245786825606163,
        "Eccentricity": 0.0,
        "Inclination(deg)": 45.0,
        "Latitude(deg)": 41.09214457695091,
        "Longitude(deg)": 175.01826312432885,
        "Mean Anomaly(deg)": 67.9432467502458,
        "RAAN(deg)": 214.99767984421166,
        "Satellite Name": "Constellation 1 950",
        "Satellite Number": 950,
        "Semi-Major Axis(m)": 7083131.272910544,
        "Time(s)": 41
    },
    {
        "Altitude(m)": 706407.8027784319,
        "Argument of Periapsis(deg)": 0.002517816262307036,
        "Eccentricity": 0.0,
        "Inclination(deg)": 45.0,
        "Latitude(deg)": 41.113536217985164,
        "Longitude(deg)": 175.08942602177862,
        "Mean Anomaly(deg)": 68.00394789049577,
        "RAAN(deg)": 214.99762325504608,
        "Satellite Name": "Constellation 1 950",
        "Satellite Number": 950,
        "Semi-Major Axis(m)": 7083131.272910544,
        "Time(s)": 42
    },
    {
        "Altitude(m)": 706412.4480698074,
        "Argument of Periapsis(deg)": 0.0025777642685524413,
        "Eccentricity": 0.0,
        "Inclination(deg)": 45.0,
        "Latitude(deg)": 41.13487858781767,
        "Longitude(deg)": 175.16063771149868,
        "Mean Anomaly(deg)": 68.06464903074567,
        "RAAN(deg)": 214.99756666588053,
        "Satellite Name": "Constellation 1 950",
        "Satellite Number": 950,
        "Semi-Major Axis(m)": 7083131.272910544,
        "Time(s)": 43
    },
    {
        "Altitude(m)": 706417.0840218303,
        "Argument of Periapsis(deg)": 0.002637712274797847,
        "Eccentricity": 0.0,
        "Inclination(deg)": 45.0,
        "Latitude(deg)": 41.15617161820807,
        "Longitude(deg)": 175.2318979810942,
        "Mean Anomaly(deg)": 68.12535017099552,
        "RAAN(deg)": 214.99751007671492,
        "Satellite Name": "Constellation 1 950",
        "Satellite Number": 950,
        "Semi-Major Axis(m)": 7083131.272910544,
        "Time(s)": 44
    },
    {
        "Altitude(m)": 706421.7106066807,
        "Argument of Periapsis(deg)": 0.0026976602810432526,
        "Eccentricity": 0.0,
        "Inclination(deg)": 45.0,
        "Latitude(deg)": 41.17741524095794,
        "Longitude(deg)": 175.30320712194748,
        "Mean Anomaly(deg)": 68.18605131124546,
        "RAAN(deg)": 214.99745348754936,
        "Satellite Name": "Constellation 1 950",
        "Satellite Number": 950,
        "Semi-Major Axis(m)": 7083131.272910544,
        "Time(s)": 45
    },
    {
        "Altitude(m)": 706426.3277965924,
        "Argument of Periapsis(deg)": 0.0027576082872886585,
        "Eccentricity": 0.0,
        "Inclination(deg)": 45.0,
        "Latitude(deg)": 41.198609387913216,
        "Longitude(deg)": 175.37456492063365,
        "Mean Anomaly(deg)": 68.24675245149534,
        "RAAN(deg)": 214.9973968983838,
        "Satellite Name": "Constellation 1 950",
        "Satellite Number": 950,
        "Semi-Major Axis(m)": 7083131.272910544,
        "Time(s)": 46
    },
    {
        "Altitude(m)": 706430.9355638633,
        "Argument of Periapsis(deg)": 0.0028175562935340644,
        "Eccentricity": 0.0,
        "Inclination(deg)": 45.0,
        "Latitude(deg)": 41.21975399096407,
        "Longitude(deg)": 175.44597133130912,
        "Mean Anomaly(deg)": 68.30745359174526,
        "RAAN(deg)": 214.99734030921823,
        "Satellite Name": "Constellation 1 950",
        "Satellite Number": 950,
        "Semi-Major Axis(m)": 7083131.272910544,
        "Time(s)": 47
    },
    {
        "Altitude(m)": 706435.5338808569,
        "Argument of Periapsis(deg)": 0.00287750429977947,
        "Eccentricity": 0.0,
        "Inclination(deg)": 45.0,
        "Latitude(deg)": 41.24084898204568,
        "Longitude(deg)": 175.51742630761265,
        "Mean Anomaly(deg)": 68.36815473199515,
        "RAAN(deg)": 214.99728372005268,
        "Satellite Name": "Constellation 1 950",
        "Satellite Number": 950,
        "Semi-Major Axis(m)": 7083131.272910544,
        "Time(s)": 48
    },
    {
        "Altitude(m)": 706440.1227199982,
        "Argument of Periapsis(deg)": 0.002937452306024875,
        "Eccentricity": 0.0,
        "Inclination(deg)": 45.0,
        "Latitude(deg)": 41.26189429313925,
        "Longitude(deg)": 175.5889298026648,
        "Mean Anomaly(deg)": 68.42885587224508,
        "RAAN(deg)": 214.99722713088713,
        "Satellite Name": "Constellation 1 950",
        "Satellite Number": 950,
        "Semi-Major Axis(m)": 7083131.272910544,
        "Time(s)": 49
    },
    {
        "Altitude(m)": 706444.7020537616,
        "Argument of Periapsis(deg)": 0.0029974003122702807,
        "Eccentricity": 0.0,
        "Inclination(deg)": 45.0,
        "Latitude(deg)": 41.28288985627251,
        "Longitude(deg)": 175.66048176906654,
        "Mean Anomaly(deg)": 68.48955701249494,
        "RAAN(deg)": 214.99717054172152,
        "Satellite Name": "Constellation 1 950",
        "Satellite Number": 950,
        "Semi-Major Axis(m)": 7083131.272910544,
        "Time(s)": 50
    },
    {
        "Altitude(m)": 706449.271854697,
        "Argument of Periapsis(deg)": 0.0030573483185156866,
        "Eccentricity": 0.0,
        "Inclination(deg)": 45.0,
        "Latitude(deg)": 41.30383560352084,
        "Longitude(deg)": 175.73208215889886,
        "Mean Anomaly(deg)": 68.55025815274483,
        "RAAN(deg)": 214.99711395255596,
        "Satellite Name": "Constellation 1 950",
        "Satellite Number": 950,
        "Semi-Major Axis(m)": 7083131.272910544,
        "Time(s)": 51
    },
    {
        "Altitude(m)": 706453.8320954097,
        "Argument of Periapsis(deg)": 0.003117296324761092,
        "Eccentricity": 0.0,
        "Inclination(deg)": 45.0,
        "Latitude(deg)": 41.32473146700801,
        "Longitude(deg)": 175.803730755624,
        "Mean Anomaly(deg)": 68.61095929299469,
        "RAAN(deg)": 214.99705736339038,
        "Satellite Name": "Constellation 1 950",
        "Satellite Number": 950,
        "Semi-Major Axis(m)": 7083131.272910544,
        "Time(s)": 52
    },
    {
        "Altitude(m)": 706458.382748568,
        "Argument of Periapsis(deg)": 0.0031772443310064975,
        "Eccentricity": 0.0,
        "Inclination(deg)": 45.0,
        "Latitude(deg)": 41.345577378905986,
        "Longitude(deg)": 175.8754278464736,
        "Mean Anomaly(deg)": 68.67166043324468,
        "RAAN(deg)": 214.99700077422483,
        "Satellite Name": "Constellation 1 950",
        "Satellite Number": 950,
        "Semi-Major Axis(m)": 7083131.272910544,
        "Time(s)": 53
    },
    {
        "Altitude(m)": 706462.9237869015,
        "Argument of Periapsis(deg)": 0.0032371923372519038,
        "Eccentricity": 0.0,
        "Inclination(deg)": 45.0,
        "Latitude(deg)": 41.366373271437325,
        "Longitude(deg)": 175.9471732138641,
        "Mean Anomaly(deg)": 68.73236157349452,
        "RAAN(deg)": 214.99694418505928,
        "Satellite Name": "Constellation 1 950",
        "Satellite Number": 950,
        "Semi-Major Axis(m)": 7083131.272910544,
        "Time(s)": 54
    },
    {
        "Altitude(m)": 706467.4551832058,
        "Argument of Periapsis(deg)": 0.0032971403434973088,
        "Eccentricity": 0.0,
        "Inclination(deg)": 45.0,
        "Latitude(deg)": 41.38711907687502,
        "Longitude(deg)": 176.0189668077856,
        "Mean Anomaly(deg)": 68.79306271374442,
        "RAAN(deg)": 214.99688759589367,
        "Satellite Name": "Constellation 1 950",
        "Satellite Number": 950,
        "Semi-Major Axis(m)": 7083131.272910544,
        "Time(s)": 55
    },
    {
        "Altitude(m)": 706471.9769103273,
        "Argument of Periapsis(deg)": 0.0033570883497427146,
        "Eccentricity": 0.0,
        "Inclination(deg)": 45.0,
        "Latitude(deg)": 41.40781472754332,
        "Longitude(deg)": 176.09080857770243,
        "Mean Anomaly(deg)": 68.85376385399437,
        "RAAN(deg)": 214.99683100672812,
        "Satellite Name": "Constellation 1 950",
        "Satellite Number": 950,
        "Semi-Major Axis(m)": 7083131.272910544,
        "Time(s)": 56
    }
]